NORAD_CAT_ID,OBJECT_NAME,OBJECT_TYPE,EPOCH,MEAN_MOTION,ECCENTRICITY,INCLINATION,RA_OF_ASC_NODE,ARG_OF_PERICENTER,MEAN_ANOMALY,BSTAR,MEAN_MOTION_DOT,MEAN_MOTION_DDOT,TLE_LINE0,TLE_LINE1,TLE_LINE2,SEMIMAJOR_AXIS,PERIOD,APOGEE,PERIGEE,DECAYED
53896.0,STARLINK-5037,PAYLOAD,2023-03-25 10:12:10,15.08812366,0.0001284,53.2169,133.4557,112.0487,248.0642,-0.0005361,-8.803e-05,0.0,0 STARLINK-5037,1 53896U 22119L   23084.42511905 -.00008803  00000-0 -53610-3 0  9999,2 53896  53.2169 133.4557 0001284 112.0487 248.0642 15.08812366 28180,6917.965,95.439,540.718,538.942,0.0
53896.0,STARLINK-5037,PAYLOAD,2023-03-25 19:44:29,15.08816364,0.0001228,53.2173,131.6731,122.7815,237.3296,-1.8141e-05,-5.76e-06,0.0,0 STARLINK-5037,1 53896U 22119L   23084.82256616 -.00000576  00000-0 -18141-4 0  9998,2 53896  53.2173 131.6731 0001228 122.7815 237.3296 15.08816364 28661,6917.953,95.439,540.667,538.968,0.0
53896.0,STARLINK-5037,PAYLOAD,2023-03-26 03:41:25,15.08826759,8.5e-05,53.2156,130.1836,123.9473,236.16,0.00049796,7.643e-05,0.0,0 STARLINK-5037,1 53896U 22119L   23085.15376866  .00007643  00000-0  49796-3 0  9994,2 53896  53.2156 130.1836 0000850 123.9473 236.1600 15.08826759 28299,6917.921,95.438,540.374,539.198,0.0
53896.0,STARLINK-5037,PAYLOAD,2023-03-26 08:27:35,15.08844592,0.0001035,53.2165,129.2918,116.4432,243.6666,0.0014232,0.00022438,0.0,0 STARLINK-5037,1 53896U 22119L   23085.35248984  .00022438  00000-0  14232-2 0  9990,2 53896  53.2165 129.2918 0001035 116.4432 243.6666 15.08844592 28321,6917.866,95.437,540.447,539.015,0.0
53896.0,STARLINK-5037,PAYLOAD,2023-03-26 19:35:16,15.08855926,9e-05,53.2157,127.2111,105.5333,254.5758,0.0010627,0.00016673,0.0,0 STARLINK-5037,1 53896U 22119L   23085.81616778  .00016673  00000-0  10627-2 0  9999,2 53896  53.2157 127.2111 0000900 105.5333 254.5758 15.08855926 28814,6917.832,95.437,540.319,539.074,0.0
53896.0,STARLINK-5037,PAYLOAD,2023-03-27 03:32:12,15.08852031,0.0001079,53.217,125.7246,111.1729,248.9379,0.00054547,8.407e-05,0.0,0 STARLINK-5037,1 53896U 22119L   23086.14736683  .00008407  00000-0  54547-3 0  9990,2 53896  53.2170 125.7246 0001079 111.1729 248.9379 15.08852031 28440,6917.844,95.437,540.455,538.962,0.0
53896.0,STARLINK-5037,PAYLOAD,2023-03-27 09:53:44,15.08856945,0.0001066,53.2168,124.5351,110.1015,250.0092,0.00062888,9.739e-05,0.0,0 STARLINK-5037,1 53896U 22119L   23086.41232457  .00009739  00000-0  62888-3 0  9996,2 53896  53.2168 124.5351 0001066 110.1015 250.0092 15.08856945 28909,6917.829,95.436,540.431,538.956,0.0
53896.0,STARLINK-5037,PAYLOAD,2023-03-27 19:26:03,15.08853493,9.93e-05,53.2163,122.7497,95.3529,264.7576,0.00053245,8.199e-05,0.0,0 STARLINK-5037,1 53896U 22119L   23086.80976326  .00008199  00000-0  53245-3 0  9995,2 53896  53.2163 122.7497 0000993  95.3529 264.7576 15.08853493 28541,6917.839,95.437,540.391,539.017,0.0
53896.0,STARLINK-5037,PAYLOAD,2023-03-28 03:22:59,15.08846787,0.0001257,53.2181,121.2643,96.3619,263.7517,0.00013556,1.871e-05,0.0,0 STARLINK-5037,1 53896U 22119L   23087.14096380  .00001871  00000-0  13556-3 0  9997,2 53896  53.2181 121.2643 0001257  96.3619 263.7517 15.08846787 28590,6917.86,95.437,540.594,538.855,0.0
53896.0,STARLINK-5037,PAYLOAD,2023-03-28 09:44:31,15.08851198,0.0001254,53.218,120.0742,96.7648,263.3486,0.00018969,2.733e-05,0.0,0 STARLINK-5037,1 53896U 22119L   23087.40592150  .00002733  00000-0  18969-3 0  9993,2 53896  53.2180 120.0742 0001254  96.7648 263.3486 15.08851198 29054,6917.846,95.437,540.579,538.844,0.0
53896.0,STARLINK-5037,PAYLOAD,2023-03-28 19:16:50,15.08846976,0.0001235,53.2175,118.2901,80.7832,279.33,9.7861e-05,1.27e-05,0.0,0 STARLINK-5037,1 53896U 22119L   23087.80336212  .00001270  00000-0  97861-4 0  9996,2 53896  53.2175 118.2901 0001235  80.7832 279.3300 15.08846976 29118,6917.859,95.437,540.578,538.87,0.0
53896.0,STARLINK-5037,PAYLOAD,2023-03-29 01:38:23,15.08844288,0.0001311,53.2177,117.1009,80.2276,279.8864,7.742e-05,9.45e-06,0.0,0 STARLINK-5037,1 53896U 22119L   23088.06832298  .00000945  00000-0  77420-4 0  9997,2 53896  53.2177 117.1009 0001311  80.2276 279.8864 15.08844288 28730,6917.867,95.437,540.639,538.825,0.0
53896.0,STARLINK-5037,PAYLOAD,2023-03-29 09:35:18,15.08846983,0.0001271,53.218,115.6138,79.4376,280.6759,7.2401e-05,8.65e-06,0.0,0 STARLINK-5037,1 53896U 22119L   23088.39952180  .00000865  00000-0  72401-4 0  9991,2 53896  53.2180 115.6138 0001271  79.4376 280.6759 15.08846983 29206,6917.859,95.437,540.603,538.845,0.0
53896.0,STARLINK-5037,PAYLOAD,2023-03-30 07:50:42,15.08841137,0.0001008,53.2174,111.4528,77.166,282.9445,0.00043336,6.616e-05,0.0,0 STARLINK-5037,1 53896U 22119L   23089.32688407  .00006616  00000-0  43336-3 0  9997,2 53896  53.2174 111.4528 0001008  77.1660 282.9445 15.08841137 28926,6917.877,95.437,540.439,539.045,0.0
53896.0,STARLINK-5037,PAYLOAD,2023-03-31 01:19:57,15.08840004,0.0001255,53.2167,108.1811,84.5144,275.5992,8.8799e-05,1.126e-05,0.0,0 STARLINK-5037,1 53896U 22119L   23090.05552326  .00001126  00000-0  88799-4 0  9993,2 53896  53.2167 108.1811 0001255  84.5144 275.5992 15.08840004 29039,6917.88,95.438,540.614,538.877,0.0
53896.0,STARLINK-5037,PAYLOAD,2023-04-01 10:43:03,15.0883634,0.0001308,53.2176,101.9345,97.3519,262.7622,9.4186e-06,-1.38e-06,0.0,0 STARLINK-5037,1 53896U 22119L   23091.44656805 -.00000138  00000-0  94186-5 0  9995,2 53896  53.2176 101.9345 0001308  97.3519 262.7622 15.08836340 29248,6917.892,95.438,540.661,538.852,0.0
53896.0,STARLINK-5037,PAYLOAD,2023-04-01 17:04:36,15.08837381,0.0001399,53.2183,100.7443,109.3203,250.794,-1.3367e-05,-5.01e-06,0.0,0 STARLINK-5037,1 53896U 22119L   23091.71152811 -.00000501  00000-0 -13367-4 0  9999,2 53896  53.2183 100.7443 0001399 109.3203 250.7940 15.08837381 29703,6917.888,95.438,540.721,538.786,0.0
53896.0,STARLINK-5037,PAYLOAD,2023-04-02 07:23:03,15.08842216,0.0001354,53.2178,98.0672,108.6682,251.4458,0.00011226,1.499e-05,0.0,0 STARLINK-5037,1 53896U 22119L   23092.30768296  .00001499  00000-0  11226-3 0  9991,2 53896  53.2178  98.0672 0001354 108.6682 251.4458 15.08842216 29372,6917.874,95.437,540.675,538.802,0.0
53896.0,STARLINK-5037,PAYLOAD,2023-04-02 10:33:50,15.08842891,0.0001366,53.2178,97.4724,109.4621,250.6518,0.00011432,1.532e-05,0.0,0 STARLINK-5037,1 53896U 22119L   23092.44016221  .00001532  00000-0  11432-3 0  9997,2 53896  53.2178  97.4724 0001366 109.4621 250.6518 15.08842891 29814,6917.872,95.437,540.682,538.792,0.0
53896.0,STARLINK-5037,PAYLOAD,2023-04-02 16:55:22,15.08844036,0.0001257,53.2184,96.283,85.6873,274.4263,6.7482e-05,7.86e-06,0.0,0 STARLINK-5037,1 53896U 22119L   23092.70512316  .00000786  00000-0  67482-4 0  9999,2 53896  53.2184  96.2830 0001257  85.6873 274.4263 15.08844036 29857,6917.868,95.437,540.603,538.863,0.0
53896.0,STARLINK-5037,PAYLOAD,2023-04-03 04:03:05,15.08832334,0.0001293,53.2192,94.2026,100.4499,259.6639,6.0736e-05,6.79e-06,0.0,0 STARLINK-5037,1 53896U 22119L   23093.16881250  .00000679  00000-0  60736-4 0  9992,2 53896  53.2192  94.2026 0001293 100.4499 259.6639 15.08832334 29503,6917.904,95.438,540.663,538.874,0.0
53896.0,STARLINK-5037,PAYLOAD,2023-04-03 05:38:28,15.08851847,0.0001568,53.2194,93.905,111.6683,248.4476,-0.00020843,-3.605e-05,0.0,0 STARLINK-5037,1 53896U 22119L   23093.23504839 -.00003605  00000-0 -20843-3 0  9993,2 53896  53.2194  93.9050 0001568 111.6683 248.4476 15.08851847 29518,6917.844,95.437,540.794,538.624,0.0
53896.0,STARLINK-5037,PAYLOAD,2023-04-03 16:46:10,15.08835888,0.0001359,53.2194,91.8242,95.2326,264.8821,3.7076e-05,3.02e-06,0.0,0 STARLINK-5037,1 53896U 22119L   23093.69873251  .00000302  00000-0  37076-4 0  9996,2 53896  53.2194  91.8242 0001359  95.2326 264.8821 15.08835888 29587,6917.893,95.438,540.698,538.818,0.0
53896.0,STARLINK-5037,PAYLOAD,2023-04-04 03:53:50,15.08857373,0.0001182,53.2193,89.7417,104.9627,255.1496,0.00015508,2.182e-05,0.0,0 STARLINK-5037,1 53896U 22119L   23094.16239252  .00002182  00000-0  15508-3 0  9999,2 53896  53.2193  89.7417 0001182 104.9627 255.1496 15.08857373 29654,6917.827,95.436,540.51,538.875,0.0
53896.0,STARLINK-5037,PAYLOAD,2023-04-04 07:04:36,15.08866222,0.0001113,53.2175,89.1464,120.8533,239.2569,0.00012607,1.721e-05,0.0,0 STARLINK-5037,1 53896U 22119L   23094.29486546  .00001721  00000-0  12607-3 0  9998,2 53896  53.2175  89.1464 0001113 120.8533 239.2569 15.08866222 29676,6917.8,95.436,540.435,538.895,0.0
53896.0,STARLINK-5037,PAYLOAD,2023-04-05 03:44:39,15.08826885,8.45e-05,53.2184,85.2854,62.8874,297.2204,-3.7021e-05,-8.77e-06,0.0,0 STARLINK-5037,1 53896U 22119L   23095.15601727 -.00000877  00000-0 -37021-4 0  9995,2 53896  53.2184  85.2854 0000845  62.8874 297.2204 15.08826885 29806,6917.92,95.438,540.37,539.201,0.0
53896.0,STARLINK-5037,PAYLOAD,2023-04-05 06:55:26,15.08824144,0.0001049,53.2184,84.6919,107.4905,252.6202,-5.7545e-05,-1.203e-05,0.0,0 STARLINK-5037,1 53896U 22119L   23095.28849933 -.00001203  00000-0 -57545-4 0  9999,2 53896  53.2184  84.6919 0001049 107.4905 252.6202 15.08824144 30248,6917.929,95.439,540.52,539.068,0.0
53896.0,STARLINK-5037,PAYLOAD,2023-04-05 16:27:44,15.08829703,9.65e-05,53.2182,82.906,84.2168,275.8934,-2.5321e-05,-6.91e-06,0.0,0 STARLINK-5037,1 53896U 22119L   23095.68593743 -.00000691  00000-0 -25321-4 0  9995,2 53896  53.2182  82.9060 0000965  84.2168 275.8934 15.08829703 30305,6917.912,95.438,540.444,539.109,0.0
53896.0,STARLINK-5037,PAYLOAD,2023-04-06 08:21:35,15.08850266,8.83e-05,53.2175,79.9314,78.8287,281.2804,-6.9984e-05,-1.402e-05,0.0,0 STARLINK-5037,1 53896U 22119L   23096.34832530 -.00001402  00000-0 -69984-4 0  9993,2 53896  53.2175  79.9314 0000883  78.8287 281.2804 15.08850266 29982,6917.849,95.437,540.325,539.103,0.0
53896.0,STARLINK-5037,PAYLOAD,2023-04-06 16:18:30,15.08850298,8.51e-05,53.2175,78.4451,80.0742,280.0346,-4.4024e-05,-9.88e-06,0.0,0 STARLINK-5037,1 53896U 22119L   23096.67952308 -.00000988  00000-0 -44024-4 0  9991,2 53896  53.2175  78.4451 0000851  80.0742 280.0346 15.08850298 30451,6917.849,95.437,540.303,539.125,0.0
